ORBCOMM FM37 [-]        
1 33064U 08031E   23330.53191929  .00003053  00000+0  47392-3 0  9996
2 33064  48.4381 157.4131 0005526 107.1309 281.5225 14.75465777829969
ORBCOMM FM40 [-]        
1 33065U 08031F   23329.94415170  .00005602  00000+0  82272-3 0  9995
2 33065  48.4404 151.0379 0006910 112.5318  40.9588 14.76575913830335
VESSELSAT 1 [-]         
1 37840U 11058C   23330.32613181  .00000485  00000+0  12069-3 0  9990
2 37840  19.9626 295.2999 0013845  51.0641 309.0996 14.11087025625851
ORBCOMM FM109 [+]       
1 40086U 14040A   23330.61776518  .00001254  00000+0  31921-3 0  9999
2 40086  47.0025 177.0564 0002229 226.5332 133.5367 14.56113614498142
ORBCOMM FM107 [+]       
1 40087U 14040B   23330.03430979  .00001712  00000+0  42181-3 0  9993
2 40087  47.0042 180.7411 0001510 189.5196 170.5660 14.56123286498134
ORBCOMM FM106 [-]       
1 40088U 14040C   23330.58209457  .00002351  00000+0  45405-3 0  9991
2 40088  47.0621  43.4067 0018960 308.2754  51.6429 14.66276731499944
ORBCOMM FM111 [-]       
1 40089U 14040D   23330.41285916  .00004620  00000+0  61841-3 0  9991
2 40089  47.0050 324.4791 0033564 359.0500   1.0326 14.80452069505799
ORBCOMM FM104 [-]       
1 40090U 14040E   23330.04471909  .00001703  00000+0  43271-3 0  9997
2 40090  47.0047 207.7847 0016783 127.8606 232.3799 14.54657423497700
